STARLINK-1579
1 46083U 20055BJ  26090.87558112  .00133130  00000+0  86742-2 0  9996
2 46083  53.0547 357.0101 0001864  52.7211 307.3947 15.06888326312647
